NORAD_CAT_ID,OBJECT_NAME,OBJECT_TYPE,EPOCH,MEAN_MOTION,ECCENTRICITY,INCLINATION,RA_OF_ASC_NODE,ARG_OF_PERICENTER,MEAN_ANOMALY,BSTAR,MEAN_MOTION_DOT,MEAN_MOTION_DDOT,TLE_LINE0,TLE_LINE1,TLE_LINE2,SEMIMAJOR_AXIS,PERIOD,APOGEE,PERIGEE,DECAYED
53993.0,STARLINK-5121,PAYLOAD,2023-01-08 09:18:01,15.08823828,0.000202,53.2147,359.7169,54.2802,305.8378,6.851100000000001e-05,8.02e-06,0.0,0 STARLINK-5121,1 53993U 22125AF  23008.38751743  .00000802  00000-0  68511-4 0  9997,2 53993  53.2147 359.7169 0002020  54.2802 305.8378 15.08823828 15047,6917.93,95.439,541.192,538.3969999999998,0.0
53993.0,STARLINK-5121,PAYLOAD,2023-01-08 23:36:29,15.08838149,0.0001694,53.2166,357.0411,42.52,317.5923,3.4535e-05,2.62e-06,0.0,0 STARLINK-5121,1 53993U 22125AF  23008.98367358  .00000262  00000-0  34535-4 0  9997,2 53993  53.2166 357.0411 0001694  42.5200 317.5923 15.08838149 15135,6917.886,95.438,540.923,538.5790000000002,0.0
53993.0,STARLINK-5121,PAYLOAD,2023-01-09 05:58:02,15.08834721,0.0001709,53.2171,355.8519,37.9795,322.1317,-1.3321e-08,-2.88e-06,0.0,0 STARLINK-5121,1 53993U 22125AF  23009.24863766 -.00000288  00000-0 -13321-7 0  9994,2 53993  53.2171 355.8519 0001709  37.9795 322.1317 15.08834721 15096,6917.897,95.438,540.944,538.5790000000002,0.0
53993.0,STARLINK-5121,PAYLOAD,2023-01-09 15:30:20,15.08841943,0.0001956,53.2168,354.0692,55.4712,304.6464,2.8697e-05,1.69e-06,0.0,0 STARLINK-5121,1 53993U 22125AF  23009.64607366  .00000169  00000-0  28697-4 0  9995,2 53993  53.2168 354.0692 0001956  55.4712 304.6464 15.08841943 15152,6917.874,95.437,541.0930000000002,538.386,0.0
53993.0,STARLINK-5121,PAYLOAD,2023-01-10 02:38:03,15.08840817,0.0001888,53.2164,351.9865,40.5163,319.597,-3.9663e-05,-9.19e-06,0.0,0 STARLINK-5121,1 53993U 22125AF  23010.10975803 -.00000919  00000-0 -39663-4 0  9992,2 53993  53.2164 351.9865 0001888  40.5163 319.5970 15.08840817 15308,6917.8780000000015,95.438,541.049,538.437,0.0
53993.0,STARLINK-5121,PAYLOAD,2023-01-10 08:59:35,15.08842618,0.0001314,53.2151,350.798,38.9307,321.1779,-4.181e-05,-9.53e-06,0.0,0 STARLINK-5121,1 53993U 22125AF  23010.37471552 -.00000953  00000-0 -41810-4 0  9998,2 53993  53.2151 350.7980 0001314  38.9307 321.1779 15.08842618 15266,6917.871999999999,95.437,540.646,538.828,0.0
53993.0,STARLINK-5121,PAYLOAD,2023-01-10 21:42:41,15.08831785,0.0001764,53.2162,348.4181,45.1494,314.9641,-1.3003e-05,-4.95e-06,0.0,0 STARLINK-5121,1 53993U 22125AF  23010.90464471 -.00000495  00000-0 -13003-4 0  9993,2 53993  53.2162 348.4181 0001764  45.1494 314.9641 15.08831785 15341,6917.905,95.438,540.991,538.55,0.0
53993.0,STARLINK-5121,PAYLOAD,2023-01-11 02:28:49,15.08870037,0.0001527,53.2155,347.5263,49.9543,310.1583,-0.00041875,-6.952e-05,0.0,0 STARLINK-5121,1 53993U 22125AF  23011.10335453 -.00006952  00000-0 -41875-3 0  9994,2 53993  53.2155 347.5263 0001527  49.9543 310.1583 15.08870037 15456,6917.789000000002,95.436,540.71,538.597,0.0
53993.0,STARLINK-5121,PAYLOAD,2023-01-11 05:39:36,15.08840958,0.0001884,53.2159,346.9315,49.1553,310.9602,0.00010143,1.327e-05,0.0,0 STARLINK-5121,1 53993U 22125AF  23011.23583615  .00001327  00000-0  10143-3 0  9996,2 53993  53.2159 346.9315 0001884  49.1553 310.9602 15.08840958 15471,6917.877,95.437,541.0459999999998,538.439,0.0
53993.0,STARLINK-5121,PAYLOAD,2023-01-11 21:33:28,15.08833032,0.0001858,53.2156,343.9581,56.3728,303.7442,-5.0211e-06,-3.68e-06,0.0,0 STARLINK-5121,1 53993U 22125AF  23011.89824508 -.00000368  00000-0 -50211-5 0  9995,2 53993  53.2156 343.9581 0001858  56.3728 303.7442 15.08833032 15494,6917.901999999999,95.438,541.052,538.481,0.0
53993.0,STARLINK-5121,PAYLOAD,2023-01-11 23:08:51,15.08829544,0.0001841,53.216,343.6605,57.0987,303.0182,-2.8639e-05,-7.44e-06,0.0,0 STARLINK-5121,1 53993U 22125AF  23011.96448816 -.00000744  00000-0 -28639-4 0  9993,2 53993  53.2160 343.6605 0001841  57.0987 303.0182 15.08829544 15587,6917.911999999998,95.438,541.0509999999998,538.504,0.0
53993.0,STARLINK-5121,PAYLOAD,2023-01-12 15:02:42,15.08835157,0.0001675,53.2164,340.6857,62.3455,297.7707,-3.5684e-05,-8.56e-06,0.0,0 STARLINK-5121,1 53993U 22125AF  23012.62688656 -.00000856  00000-0 -35684-4 0  9997,2 53993  53.2164 340.6857 0001675  62.3455 297.7707 15.08835157 15681,6917.895,95.438,540.919,538.601,0.0
53993.0,STARLINK-5121,PAYLOAD,2023-01-13 03:45:48,15.08830576,0.000124,53.216,338.3057,61.2739,298.8377,-9.6996e-05,-1.831e-05,0.0,0 STARLINK-5121,1 53993U 22125AF  23013.15681505 -.00001831  00000-0 -96996-4 0  9999,2 53993  53.2160 338.3057 0001240  61.2739 298.8377 15.08830576 15768,6917.9090000000015,95.438,540.632,538.9159999999998,0.0
53993.0,STARLINK-5121,PAYLOAD,2023-01-13 14:53:30,15.08839567,0.0001709,53.2166,336.2263,65.194,294.9229,3.9936e-05,3.48e-06,0.0,0 STARLINK-5121,1 53993U 22125AF  23013.62048687  .00000348  00000-0  39936-4 0  9990,2 53993  53.2166 336.2263 0001709  65.1940 294.9229 15.08839567 15837,6917.882,95.438,540.929,538.564,0.0
53993.0,STARLINK-5121,PAYLOAD,2023-01-14 06:47:20,15.08855843,0.0001549,53.2165,333.251,79.97800000000001,280.1387,0.0001929,2.785e-05,0.0,0 STARLINK-5121,1 53993U 22125AF  23014.28287270  .00002785  00000-0  19290-3 0  9993,2 53993  53.2165 333.2510 0001549  79.9780 280.1387 15.08855843 15933,6917.831999999999,95.437,540.769,538.625,0.0
53993.0,STARLINK-5121,PAYLOAD,2023-01-15 03:27:22,15.08840012,0.0001955,53.2147,329.3864,82.8874,277.2341,0.00015223,2.135e-05,0.0,0 STARLINK-5121,1 53993U 22125AF  23015.14400540  .00002135  00000-0  15223-3 0  9997,2 53993  53.2147 329.3864 0001955  82.8874 277.2341 15.08840012 16063,6917.88,95.438,541.0980000000001,538.393,0.0
53993.0,STARLINK-5121,PAYLOAD,2023-01-15 06:38:08,15.08842986,0.0001686999999999,53.2165,328.7916,81.5695,278.5489,0.00013297,1.829e-05,0.0,0 STARLINK-5121,1 53993U 22125AF  23015.27648459  .00001829  00000-0  13297-3 0  9992,2 53993  53.2165 328.7916 0001687  81.5695 278.5489 15.08842986 16006,6917.871,95.437,540.903,538.569,0.0
53993.0,STARLINK-5121,PAYLOAD,2023-01-16 03:18:06,15.08877283,0.0001289,53.2171,324.9256,84.031,276.0829,0.0001411,1.961e-05,0.0,0 STARLINK-5121,1 53993U 22125AF  23016.13757979  .00001961  00000-0  14110-3 0  9998,2 53993  53.2171 324.9256 0001289  84.0310 276.0829 15.08877283 16210,6917.766,95.435,540.523,538.74,0.0
53993.0,STARLINK-5121,PAYLOAD,2023-01-16 12:50:26,15.08856102,0.0001388,53.2173,323.1411,83.5483,276.5667,-3.2363e-05,-8.03e-06,0.0,0 STARLINK-5121,1 53993U 22125AF  23016.53503218 -.00000803  00000-0 -32363-4 0  9994,2 53993  53.2173 323.1411 0001388  83.5483 276.5667 15.08856102 16190,6917.831,95.437,540.656,538.736,0.0
53993.0,STARLINK-5121,PAYLOAD,2023-01-16 20:47:23,15.08837337,0.000206,53.2184,321.658,97.8971,262.2255,-4.7801000000000005e-05,-1.049e-05,0.0,0 STARLINK-5121,1 53993U 22125AF  23016.86624792 -.00001049  00000-0 -47801-4 0  9997,2 53993  53.2184 321.6580 0002060  97.8971 262.2255 15.08837337 16240,6917.889,95.438,541.179,538.328,0.0
53993.0,STARLINK-5121,PAYLOAD,2023-01-17 03:08:55,15.08843486,0.0001719,53.2179,320.4676,94.5937,265.5251,8.2405e-06,-1.57e-06,0.0,0 STARLINK-5121,1 53993U 22125AF  23017.13120223 -.00000157  00000-0  82405-5 0  9996,2 53993  53.2179 320.4676 0001719  94.5937 265.5251 15.08843486 16360,6917.87,95.437,540.924,538.5459999999999,0.0
53993.0,STARLINK-5121,PAYLOAD,2023-01-17 12:41:15,15.08837956,0.0001585,53.2173,318.6819,90.6301,269.4873,-6.2347e-05,-1.28e-05,0.0,0 STARLINK-5121,1 53993U 22125AF  23017.52864740 -.00001280  00000-0 -62347-4 0  9999,2 53993  53.2173 318.6819 0001585  90.6301 269.4873 15.08837956 16341,6917.887,95.438,540.8480000000001,538.655,0.0
53993.0,STARLINK-5121,PAYLOAD,2023-01-18 01:24:21,15.08829432,0.0001250999999999,53.2172,316.3041,92.9334,267.1801,-0.00031023,-5.22e-05,0.0,0 STARLINK-5121,1 53993U 22125AF  23018.05858521 -.00005220  00000-0 -31023-3 0  9992,2 53993  53.2172 316.3041 0001251  92.9334 267.1801 15.08829432 16507,6917.9130000000005,95.438,540.643,538.9119999999999,0.0
53993.0,STARLINK-5121,PAYLOAD,2023-01-18 06:10:30,15.0883801,0.0001079,53.2162,315.4087,83.3923,276.7192,-0.00020455,-3.542e-05,0.0,0 STARLINK-5121,1 53993U 22125AF  23018.25729625 -.00003542  00000-0 -20455-3 0  9998,2 53993  53.2162 315.4087 0001079  83.3923 276.7192 15.08838010 16536,6917.886,95.438,540.498,539.005,0.0
53993.0,STARLINK-5121,PAYLOAD,2023-01-18 12:32:02,15.08844039,0.0001134,53.2168,314.2226,91.2618,268.8504,-0.00017071,-3.004e-05,0.0,0 STARLINK-5121,1 53993U 22125AF  23018.52225252 -.00003004  00000-0 -17071-3 0  9998,2 53993  53.2168 314.2226 0001134  91.2618 268.8504 15.08844039 16497,6917.868,95.437,540.518,538.9490000000001,0.0
53993.0,STARLINK-5121,PAYLOAD,2023-01-19 01:15:06,15.08847824,0.0001306,53.2172,311.8431,96.1058,264.0083,0.00019168,2.765e-05,0.0,0 STARLINK-5121,1 53993U 22125AF  23019.05216330  .00002765  00000-0  19168-3 0  9994,2 53993  53.2172 311.8431 0001306  96.1058 264.0083 15.08847824 16659,6917.856,95.437,540.625,538.818,0.0
53993.0,STARLINK-5121,PAYLOAD,2023-01-19 06:01:15,15.08863405,0.0001035,53.2159,310.9498,98.0881,262.0229,0.00030636,4.594e-05,0.0,0 STARLINK-5121,1 53993U 22125AF  23019.25086867  .00004594  00000-0  30636-3 0  9991,2 53993  53.2159 310.9498 0001035  98.0881 262.0229 15.08863405 16687,6917.809,95.436,540.39,538.9580000000001,0.0
53993.0,STARLINK-5121,PAYLOAD,2023-01-20 12:13:38,15.08825572,0.00018,53.2168,305.2954,89.8091,270.3107,9.8823e-05,1.284e-05,0.0,0 STARLINK-5121,1 53993U 22125AF  23020.50947110  .00001284  00000-0  98823-4 0  9994,2 53993  53.2168 305.2954 0001800  89.8091 270.3107 15.08825572 16873,6917.924,95.438,541.035,538.544,0.0
53993.0,STARLINK-5121,PAYLOAD,2023-01-21 00:56:41,15.08862478,9.53e-05,53.2144,302.9204,90.5373,269.5728,-3.4713000000000005e-05,-8.41e-06,0.0,0 STARLINK-5121,1 53993U 22125AF  23021.03936868 -.00000841  00000-0 -34713-4 0  9999,2 53993  53.2144 302.9204 0000953  90.5373 269.5728 15.08862478 16953,6917.812,95.436,540.336,539.0169999999999,0.0
